ATLAS CENTAUR R/B       
1 06155U 72065B   26050.38257574  .00001274  00000+0  17672-3 0  9990
2 06155  35.0020  53.0332 0034197 216.9902 142.8439 14.77629997838559
SL-8 R/B                
1 08459U 75112B   26050.41758736  .00000142  00000+0  55236-4 0  9997
2 08459  74.0595  52.5256 0014924 152.6942 207.5000 14.38193299629248
SL-3 R/B                
1 10114U 77057B   26050.58661442  .00012201  00000+0  26098-3 0  9995
2 10114  97.5743 221.7214 0007197 357.4146   2.7064 15.44942841665533
SEASAT 1                
1 10967U 78064A   26050.51124314  .00000210  00000+0  97235-4 0  9994
2 10967 108.0151  87.3515 0001868 290.7101  69.3845 14.46145277503883
SL-14 R/B               
1 11267U 79011B   26050.60558937  .00000558  00000+0  52508-4 0  9992
2 11267  82.5237 113.7323 0017533 116.0514 244.2514 14.91885640526082
SL-8 R/B                
1 11574U 79089B   26050.57327316  .00000242  00000+0  81097-4 0  9994
2 11574  74.0689 124.5800 0016890 299.0845  60.8619 14.42339056433495
SL-14 R/B               
1 11672U 80005B   26050.27114907  .00000615  00000+0  59708-4 0  9998
2 11672  82.5173 324.7034 0014572 220.8240 139.1888 14.90905990473744
SL-8 R/B                
1 12139U 81003B   26050.18765550  .00013771  00000+0  36165-3 0  9990
2 12139  82.9397 307.1233 0262607 243.0482 114.3709 15.10268661311883
SL-3 R/B                
1 12465U 81046B   26050.35198833  .00011955  00000+0  28247-3 0  9996
2 12465  81.2335 311.7528 0020746  83.0038 277.3563 15.41473899435602
SL-3 R/B                
1 12904U 81103B   26050.55240426  .00004664  00000+0  20793-3 0  9993
2 12904  81.1557 234.7076 0013129 350.6045   9.4938 15.21142695970479
SL-3 R/B                
1 13068U 82013B   26050.56822522  .00005283  00000+0  23017-3 0  9990
2 13068  81.1761 182.0017 0021824 239.7149 120.1924 15.21805820401595
SL-3 R/B                
1 13154U 82039B   26050.56663449  .00002096  00000+0  12634-3 0  9997
2 13154  81.1589 236.8536 0030011  23.6728 336.5870 15.09971045378904
