CCSDS_OMM_VERS = 2.0
CREATION_DATE  = 
ORIGINATOR     = 

OBJECT_NAME    = ATLAS CENTAUR R/B
OBJECT_ID      = 1972-065B
CENTER_NAME    = EARTH
REF_FRAME      = TEME
TIME_SYSTEM    = UTC
MEAN_ELEMENT_THEORY = SGP/SGP4

EPOCH          = 2026-02-19T09:10:54.543936
MEAN_MOTION    = 14.77629997
ECCENTRICITY   = .00341978
INCLINATION    = 35.0020
RA_OF_ASC_NODE = 53.0332
ARG_OF_PERICENTER = 216.9902
MEAN_ANOMALY   = 142.8439

EPHEMERIS_TYPE = 0
CLASSIFICATION_TYPE = U
NORAD_CAT_ID   = 6155
ELEMENT_SET_NO = 999
REV_AT_EPOCH   = 83855
BSTAR          = .1767192E-3
MEAN_MOTION_DOT = .1274E-4
MEAN_MOTION_DDOT = 0

CCSDS_OMM_VERS = 2.0
CREATION_DATE  = 
ORIGINATOR     = 

OBJECT_NAME    = SL-8 R/B
OBJECT_ID      = 1975-112B
CENTER_NAME    = EARTH
REF_FRAME      = TEME
TIME_SYSTEM    = UTC
MEAN_ELEMENT_THEORY = SGP/SGP4

EPOCH          = 2026-02-19T10:01:19.547904
MEAN_MOTION    = 14.38193299
ECCENTRICITY   = .00149249
INCLINATION    = 74.0595
RA_OF_ASC_NODE = 52.5256
ARG_OF_PERICENTER = 152.6942
MEAN_ANOMALY   = 207.5000

EPHEMERIS_TYPE = 0
CLASSIFICATION_TYPE = U
NORAD_CAT_ID   = 8459
ELEMENT_SET_NO = 999
REV_AT_EPOCH   = 62924
BSTAR          = .5523644E-4
MEAN_MOTION_DOT = .142E-5
MEAN_MOTION_DDOT = 0

CCSDS_OMM_VERS = 2.0
CREATION_DATE  = 
ORIGINATOR     = 

OBJECT_NAME    = SL-3 R/B
OBJECT_ID      = 1977-057B
CENTER_NAME    = EARTH
REF_FRAME      = TEME
TIME_SYSTEM    = UTC
MEAN_ELEMENT_THEORY = SGP/SGP4

EPOCH          = 2026-02-19T14:04:43.485888
MEAN_MOTION    = 15.44942841
ECCENTRICITY   = .00071972
INCLINATION    = 97.5743
RA_OF_ASC_NODE = 221.7214
ARG_OF_PERICENTER = 357.4146
MEAN_ANOMALY   = 2.7064

EPHEMERIS_TYPE = 0
CLASSIFICATION_TYPE = U
NORAD_CAT_ID   = 10114
ELEMENT_SET_NO = 999
REV_AT_EPOCH   = 66553
BSTAR          = .26098053E-3
MEAN_MOTION_DOT = .12201E-3
MEAN_MOTION_DDOT = 0

CCSDS_OMM_VERS = 2.0
CREATION_DATE  = 
ORIGINATOR     = 

OBJECT_NAME    = SEASAT 1
OBJECT_ID      = 1978-064A
CENTER_NAME    = EARTH
REF_FRAME      = TEME
TIME_SYSTEM    = UTC
MEAN_ELEMENT_THEORY = SGP/SGP4

EPOCH          = 2026-02-19T12:16:11.407296
MEAN_MOTION    = 14.46145277
ECCENTRICITY   = .00018684
INCLINATION    = 108.0151
RA_OF_ASC_NODE = 87.3515
ARG_OF_PERICENTER = 290.7101
MEAN_ANOMALY   = 69.3845

EPHEMERIS_TYPE = 0
CLASSIFICATION_TYPE = U
NORAD_CAT_ID   = 10967
ELEMENT_SET_NO = 999
REV_AT_EPOCH   = 50388
BSTAR          = .97235285E-4
MEAN_MOTION_DOT = .21E-5
MEAN_MOTION_DDOT = 0

CCSDS_OMM_VERS = 2.0
CREATION_DATE  = 
ORIGINATOR     = 

OBJECT_NAME    = SL-14 R/B
OBJECT_ID      = 1979-011B
CENTER_NAME    = EARTH
REF_FRAME      = TEME
TIME_SYSTEM    = UTC
MEAN_ELEMENT_THEORY = SGP/SGP4

EPOCH          = 2026-02-19T14:32:02.921568
MEAN_MOTION    = 14.91885640
ECCENTRICITY   = .00175339
INCLINATION    = 82.5237
RA_OF_ASC_NODE = 113.7323
ARG_OF_PERICENTER = 116.0514
MEAN_ANOMALY   = 244.2514

EPHEMERIS_TYPE = 0
CLASSIFICATION_TYPE = U
NORAD_CAT_ID   = 11267
ELEMENT_SET_NO = 999
REV_AT_EPOCH   = 52608
BSTAR          = .52508385E-4
MEAN_MOTION_DOT = .558E-5
MEAN_MOTION_DDOT = 0

CCSDS_OMM_VERS = 2.0
CREATION_DATE  = 
ORIGINATOR     = 

OBJECT_NAME    = SL-8 R/B
OBJECT_ID      = 1979-089B
CENTER_NAME    = EARTH
REF_FRAME      = TEME
TIME_SYSTEM    = UTC
MEAN_ELEMENT_THEORY = SGP/SGP4

EPOCH          = 2026-02-19T13:45:30.801024
MEAN_MOTION    = 14.42339056
ECCENTRICITY   = .00168901
INCLINATION    = 74.0689
RA_OF_ASC_NODE = 124.5800
ARG_OF_PERICENTER = 299.0845
MEAN_ANOMALY   = 60.8619

EPHEMERIS_TYPE = 0
CLASSIFICATION_TYPE = U
NORAD_CAT_ID   = 11574
ELEMENT_SET_NO = 999
REV_AT_EPOCH   = 43349
BSTAR          = .81096763E-4
MEAN_MOTION_DOT = .242E-5
MEAN_MOTION_DDOT = 0

CCSDS_OMM_VERS = 2.0
CREATION_DATE  = 
ORIGINATOR     = 

OBJECT_NAME    = SL-14 R/B
OBJECT_ID      = 1980-005B
CENTER_NAME    = EARTH
REF_FRAME      = TEME
TIME_SYSTEM    = UTC
MEAN_ELEMENT_THEORY = SGP/SGP4

EPOCH          = 2026-02-19T06:30:27.279648
MEAN_MOTION    = 14.90905990
ECCENTRICITY   = .0014572
INCLINATION    = 82.5173
RA_OF_ASC_NODE = 324.7034
ARG_OF_PERICENTER = 220.8240
MEAN_ANOMALY   = 139.1888

EPHEMERIS_TYPE = 0
CLASSIFICATION_TYPE = U
NORAD_CAT_ID   = 11672
ELEMENT_SET_NO = 999
REV_AT_EPOCH   = 47374
BSTAR          = .59708E-4
MEAN_MOTION_DOT = .615E-5
MEAN_MOTION_DDOT = 0

CCSDS_OMM_VERS = 2.0
CREATION_DATE  = 
ORIGINATOR     = 

OBJECT_NAME    = SL-8 R/B
OBJECT_ID      = 1981-003B
CENTER_NAME    = EARTH
REF_FRAME      = TEME
TIME_SYSTEM    = UTC
MEAN_ELEMENT_THEORY = SGP/SGP4

EPOCH          = 2026-02-19T04:30:13.435200
MEAN_MOTION    = 15.10268661
ECCENTRICITY   = .0262607
INCLINATION    = 82.9397
RA_OF_ASC_NODE = 307.1233
ARG_OF_PERICENTER = 243.0482
MEAN_ANOMALY   = 114.3709

EPHEMERIS_TYPE = 0
CLASSIFICATION_TYPE = U
NORAD_CAT_ID   = 12139
ELEMENT_SET_NO = 999
REV_AT_EPOCH   = 31188
BSTAR          = .36165E-3
MEAN_MOTION_DOT = .13771E-3
MEAN_MOTION_DDOT = 0

CCSDS_OMM_VERS = 2.0
CREATION_DATE  = 
ORIGINATOR     = 

OBJECT_NAME    = SL-3 R/B
OBJECT_ID      = 1981-046B
CENTER_NAME    = EARTH
REF_FRAME      = TEME
TIME_SYSTEM    = UTC
MEAN_ELEMENT_THEORY = SGP/SGP4

EPOCH          = 2026-02-19T08:26:51.791712
MEAN_MOTION    = 15.41473899
ECCENTRICITY   = .00207468
INCLINATION    = 81.2335
RA_OF_ASC_NODE = 311.7528
ARG_OF_PERICENTER = 83.0038
MEAN_ANOMALY   = 277.3563

EPHEMERIS_TYPE = 0
CLASSIFICATION_TYPE = U
NORAD_CAT_ID   = 12465
ELEMENT_SET_NO = 999
REV_AT_EPOCH   = 43560
BSTAR          = .28247025E-3
MEAN_MOTION_DOT = .11955E-3
MEAN_MOTION_DDOT = 0

CCSDS_OMM_VERS = 2.0
CREATION_DATE  = 
ORIGINATOR     = 

OBJECT_NAME    = SL-3 R/B
OBJECT_ID      = 1981-103B
CENTER_NAME    = EARTH
REF_FRAME      = TEME
TIME_SYSTEM    = UTC
MEAN_ELEMENT_THEORY = SGP/SGP4

EPOCH          = 2026-02-19T13:15:27.728064
MEAN_MOTION    = 15.21142695
ECCENTRICITY   = .00131293
INCLINATION    = 81.1557
RA_OF_ASC_NODE = 234.7076
ARG_OF_PERICENTER = 350.6045
MEAN_ANOMALY   = 9.4938

EPHEMERIS_TYPE = 0
CLASSIFICATION_TYPE = U
NORAD_CAT_ID   = 12904
ELEMENT_SET_NO = 999
REV_AT_EPOCH   = 97047
BSTAR          = .20792754E-3
MEAN_MOTION_DOT = .4664E-4
MEAN_MOTION_DDOT = 0

CCSDS_OMM_VERS = 2.0
CREATION_DATE  = 
ORIGINATOR     = 

OBJECT_NAME    = SL-3 R/B
OBJECT_ID      = 1982-013B
CENTER_NAME    = EARTH
REF_FRAME      = TEME
TIME_SYSTEM    = UTC
MEAN_ELEMENT_THEORY = SGP/SGP4

EPOCH          = 2026-02-19T13:38:14.659008
MEAN_MOTION    = 15.21805820
ECCENTRICITY   = .00218245
INCLINATION    = 81.1761
RA_OF_ASC_NODE = 182.0017
ARG_OF_PERICENTER = 239.7149
MEAN_ANOMALY   = 120.1924

EPHEMERIS_TYPE = 0
CLASSIFICATION_TYPE = U
NORAD_CAT_ID   = 13068
ELEMENT_SET_NO = 999
REV_AT_EPOCH   = 40159
BSTAR          = .23016831E-3
MEAN_MOTION_DOT = .5283E-4
MEAN_MOTION_DDOT = 0

CCSDS_OMM_VERS = 2.0
CREATION_DATE  = 
ORIGINATOR     = 

OBJECT_NAME    = SL-3 R/B
OBJECT_ID      = 1982-039B
CENTER_NAME    = EARTH
REF_FRAME      = TEME
TIME_SYSTEM    = UTC
MEAN_ELEMENT_THEORY = SGP/SGP4

EPOCH          = 2026-02-19T13:35:57.219936
MEAN_MOTION    = 15.09971045
ECCENTRICITY   = .00300114
INCLINATION    = 81.1589
RA_OF_ASC_NODE = 236.8536
ARG_OF_PERICENTER = 23.6728
MEAN_ANOMALY   = 336.5870

EPHEMERIS_TYPE = 0
CLASSIFICATION_TYPE = U
NORAD_CAT_ID   = 13154
ELEMENT_SET_NO = 999
REV_AT_EPOCH   = 37890
BSTAR          = .12634482E-3
MEAN_MOTION_DOT = .2096E-4
MEAN_MOTION_DDOT = 0

